{
  "type": "FeatureCollection",
  "features": [
    {
      "type": "Feature",
      "properties": {
        "norad_id": 36828,
        "name": "BEIDOU-2 IGSO-1 (C06)",
        "group": "beidou",
        "lat": 36.69267364454691,
        "lon": -47.85267471616275,
        "alt_km": 35755.08966983002,
        "timestamp": "2025-12-15T07:02:37.881273+00:00",
        "meta_object_name": "BEIDOU-2 IGSO-1 (C06)",
        "meta_object_id": "2010-036A",
        "meta_epoch": "2025-12-14T21:38:21.623424",
        "meta_mean_motion": 1.00275796,
        "meta_eccentricity": 0.00512569,
        "meta_inclination": 54.2866,
        "meta_ra_of_asc_node": 164.6279,
        "meta_arg_of_pericenter": 215.8888,
        "meta_mean_anomaly": 135.7931,
        "meta_ephemeris_type": 0,
        "meta_classification_type": "U",
        "meta_norad_cat_id": 36828,
        "meta_element_set_no": 999,
        "meta_rev_at_epoch": 5624,
        "meta_bstar": 0,
        "meta_mean_motion_dot": -2.4e-07,
        "meta_mean_motion_ddot": 0,
        "tle_line1": "1 36828U 10036A   25348.90163916 -.00000024  00000+0  00000+0 0  9999",
        "tle_line2": "2 36828  54.2866 164.6279 0051256 215.8888 135.7931  1.00275796 56247"
      },
      "geometry": {
        "type": "Point",
        "coordinates": [
          -47.85267471616275,
          36.69267364454691
        ]
      }
    },
    {
      "type": "Feature",
      "properties": {
        "norad_id": 37210,
        "name": "BEIDOU-2 G4 (C04)",
        "group": "beidou",
        "lat": -3.1379819256896684,
        "lon": -9.934042517590619,
        "alt_km": 35785.11122610366,
        "timestamp": "2025-12-15T07:02:37.881296+00:00",
        "meta_object_name": "BEIDOU-2 G4 (C04)",
        "meta_object_id": "2010-057A",
        "meta_epoch": "2025-12-14T21:01:39.976032",
        "meta_mean_motion": 1.00271828,
        "meta_eccentricity": 0.0010669,
        "meta_inclination": 3.1901,
        "meta_ra_of_asc_node": 69.9323,
        "meta_arg_of_pericenter": 191.8324,
        "meta_mean_anomaly": 297.5165,
        "meta_ephemeris_type": 0,
        "meta_classification_type": "U",
        "meta_norad_cat_id": 37210,
        "meta_element_set_no": 999,
        "meta_rev_at_epoch": 5544,
        "meta_bstar": 0,
        "meta_mean_motion_dot": -9.3e-07,
        "meta_mean_motion_ddot": 0,
        "tle_line1": "1 37210U 10057A   25348.87615713 -.00000093  00000+0  00000+0 0  9997",
        "tle_line2": "2 37210   3.1901  69.9323 0010669 191.8324 297.5165  1.00271828 55443"
      },
      "geometry": {
        "type": "Point",
        "coordinates": [
          -9.934042517590619,
          -3.1379819256896684
        ]
      }
    },
    {
      "type": "Feature",
      "properties": {
        "norad_id": 37256,
        "name": "BEIDOU-2 IGSO-2 (C07)",
        "group": "beidou",
        "lat": 17.27644237321162,
        "lon": -69.60136452749708,
        "alt_km": 35980.13032718849,
        "timestamp": "2025-12-15T07:02:37.881310+00:00",
        "meta_object_name": "BEIDOU-2 IGSO-2 (C07)",
        "meta_object_id": "2010-068A",
        "meta_epoch": "2025-12-14T17:43:21.584928",
        "meta_mean_motion": 1.00286059,
        "meta_eccentricity": 0.00486596,
        "meta_inclination": 47.8819,
        "meta_ra_of_asc_node": 274.1236,
        "meta_arg_of_pericenter": 216.4437,
        "meta_mean_anomaly": 326.6295,
        "meta_ephemeris_type": 0,
        "meta_classification_type": "U",
        "meta_norad_cat_id": 37256,
        "meta_element_set_no": 999,
        "meta_rev_at_epoch": 5494,
        "meta_bstar": 0,
        "meta_mean_motion_dot": -2.25e-06,
        "meta_mean_motion_ddot": 0,
        "tle_line1": "1 37256U 10068A   25348.73844427 -.00000225  00000+0  00000+0 0  9997",
        "tle_line2": "2 37256  47.8819 274.1236 0048659 216.4437 326.6295  1.00286059 54942"
      },
      "geometry": {
        "type": "Point",
        "coordinates": [
          -69.60136452749708,
          17.27644237321162
        ]
      }
    },
    {
      "type": "Feature",
      "properties": {
        "norad_id": 37384,
        "name": "BEIDOU-2 IGSO-3 (C08)",
        "group": "beidou",
        "lat": -59.0087016662346,
        "lon": -76.55217789497704,
        "alt_km": 35736.75453589904,
        "timestamp": "2025-12-15T07:02:37.881324+00:00",
        "meta_object_name": "BEIDOU-2 IGSO-3 (C08)",
        "meta_object_id": "2011-013A",
        "meta_epoch": "2025-12-14T15:18:38.168064",
        "meta_mean_motion": 1.00270472,
        "meta_eccentricity": 0.00354241,
        "meta_inclination": 62.1463,
        "meta_ra_of_asc_node": 41.8972,
        "meta_arg_of_pericenter": 187.6123,
        "meta_mean_anomaly": 191.2166,
        "meta_ephemeris_type": 0,
        "meta_classification_type": "U",
        "meta_norad_cat_id": 37384,
        "meta_element_set_no": 999,
        "meta_rev_at_epoch": 5381,
        "meta_bstar": 0,
        "meta_mean_motion_dot": -1.94e-06,
        "meta_mean_motion_ddot": 0,
        "tle_line1": "1 37384U 11013A   25348.63794176 -.00000194  00000+0  00000+0 0  9999",
        "tle_line2": "2 37384  62.1463  41.8972 0035424 187.6123 191.2166  1.00270472 53812"
      },
      "geometry": {
        "type": "Point",
        "coordinates": [
          -76.55217789497704,
          -59.0087016662346
        ]
      }
    },
    {
      "type": "Feature",
      "properties": {
        "norad_id": 37763,
        "name": "BEIDOU-2 IGSO-4 (C09)",
        "group": "beidou",
        "lat": 47.32015697782429,
        "lon": -63.28544959842446,
        "alt_km": 36034.24306543961,
        "timestamp": "2025-12-15T07:02:37.881337+00:00",
        "meta_object_name": "BEIDOU-2 IGSO-4 (C09)",
        "meta_object_id": "2011-038A",
        "meta_epoch": "2025-12-10T12:04:03.489024",
        "meta_mean_motion": 1.00284678,
        "meta_eccentricity": 0.01490344,
        "meta_inclination": 54.5829,
        "meta_ra_of_asc_node": 167.3658,
        "meta_arg_of_pericenter": 230.2355,
        "meta_mean_anomaly": 317.2212,
        "meta_ephemeris_type": 0,
        "meta_classification_type": "U",
        "meta_norad_cat_id": 37763,
        "meta_element_set_no": 999,
        "meta_rev_at_epoch": 5275,
        "meta_bstar": 0,
        "meta_mean_motion_dot": 3.6e-07,
        "meta_mean_motion_ddot": 0,
        "tle_line1": "1 37763U 11038A   25344.50281816  .00000036  00000+0  00000+0 0  9995",
        "tle_line2": "2 37763  54.5829 167.3658 0149034 230.2355 317.2212  1.00284678 52751"
      },
      "geometry": {
        "type": "Point",
        "coordinates": [
          -63.28544959842446,
          47.32015697782429
        ]
      }
    },
    {
      "type": "Feature",
      "properties": {
        "norad_id": 37948,
        "name": "BEIDOU-2 IGSO-5 (C10)",
        "group": "beidou",
        "lat": 7.299662728995544,
        "lon": -79.59102269494733,
        "alt_km": 36170.39963327824,
        "timestamp": "2025-12-15T07:02:37.881350+00:00",
        "meta_object_name": "BEIDOU-2 IGSO-5 (C10)",
        "meta_object_id": "2011-073A",
        "meta_epoch": "2025-12-12T18:24:47.608416",
        "meta_mean_motion": 1.00291151,
        "meta_eccentricity": 0.01101752,
        "meta_inclination": 48.0199,
        "meta_ra_of_asc_node": 273.857,
        "meta_arg_of_pericenter": 222.308,
        "meta_mean_anomaly": 314.7254,
        "meta_ephemeris_type": 0,
        "meta_classification_type": "U",
        "meta_norad_cat_id": 37948,
        "meta_element_set_no": 999,
        "meta_rev_at_epoch": 5126,
        "meta_bstar": 0,
        "meta_mean_motion_dot": -2.21e-06,
        "meta_mean_motion_ddot": 0,
        "tle_line1": "1 37948U 11073A   25346.76721769 -.00000221  00000+0  00000+0 0  9992",
        "tle_line2": "2 37948  48.0199 273.8570 0110175 222.3080 314.7254  1.00291151 51268"
      },
      "geometry": {
        "type": "Point",
        "coordinates": [
          -79.59102269494733,
          7.299662728995544
        ]
      }
    },
    {
      "type": "Feature",
      "properties": {
        "norad_id": 38091,
        "name": "BEIDOU-2 G5 (C05)",
        "group": "beidou",
        "lat": 0.0934944236973909,
        "lon": -111.42293974856047,
        "alt_km": 35751.05045791017,
        "timestamp": "2025-12-15T07:02:37.881362+00:00",
        "meta_object_name": "BEIDOU-2 G5 (C05)",
        "meta_object_id": "2012-008A",
        "meta_epoch": "2025-12-14T22:15:32.898240",
        "meta_mean_motion": 1.00276646,
        "meta_eccentricity": 0.00125198,
        "meta_inclination": 3.1149,
        "meta_ra_of_asc_node": 70.7041,
        "meta_arg_of_pericenter": 228.6209,
        "meta_mean_anomaly": 177.2276,
        "meta_ephemeris_type": 0,
        "meta_classification_type": "U",
        "meta_norad_cat_id": 38091,
        "meta_element_set_no": 999,
        "meta_rev_at_epoch": 5052,
        "meta_bstar": 0,
        "meta_mean_motion_dot": 7.4e-07,
        "meta_mean_motion_ddot": 0,
        "tle_line1": "1 38091U 12008A   25348.92746410  .00000074  00000+0  00000+0 0  9996",
        "tle_line2": "2 38091   3.1149  70.7041 0012519 228.6209 177.2276  1.00276646 50523"
      },
      "geometry": {
        "type": "Point",
        "coordinates": [
          -111.42293974856047,
          0.0934944236973909
        ]
      }
    }
  ]
}